1 35110U 99025DKN 20127.27236985  .00001023  00000-0  28070-3 0  9995
2 35110  96.6444 142.3836 0128847 104.8341 256.7168 14.43641256644727
1 35111U 99025DKP 20140.58414571 -.00000018 +00000-0 +17859-4 0  9992
2 35111 099.4718 078.9234 0026294 070.7995 289.6014 14.07763658355150
1 35114U 99025DKS 20140.22838642  .00002188  00000-0  10070-3 0  9991
2 35114  97.7922 312.6412 0151546 247.3196 111.1951 15.11867400675746
1 35116U 99025DKU 20139.90191415 +.00000318 +00000-0 +17805-3 0  9992
2 35116 098.8460 183.7709 0069764 134.5283 226.1619 14.16285595311105
1 35117U 99025DKV 20140.42997980 +.00001111 +00000-0 +39149-3 0  9990
2 35117 098.7541 225.4328 0055157 181.4767 242.1334 14.35952667362329
1 35118U 99025DKW 20140.18795991  .00000921  00000-0  13504-3 0  9997
2 35118  97.8831 292.2130 0175501 261.0497  97.0808 14.68190376664556
1 35119U 99025DKX 20132.26941062 +.00002020 +00000-0 +38185-3 0  9994
2 35119 099.9694 304.3513 0049531 320.0033 163.7925 14.65158433356949
1 35120U 99025DKY 20140.58276750 -.00000033 +00000-0 +10511-5 0  9993
2 35120 098.0170 265.0072 0166291 058.2336 303.4913 14.02807959351582
1 35121U 99025DKZ 20140.20564149 -.00000113  00000-0 -43794-4 0  9993
2 35121  98.2635 143.9566 0161993 102.7986 259.1339 14.03101946630496
1 35122U 99025DLA 20140.32252119 +.00000094 +00000-0 +75671-4 0  9993
2 35122 098.8782 174.6746 0026418 172.0903 188.0690 14.11669614351612
1 35123U 99025DLB 20140.53352845 +.00000146 +00000-0 +92040-4 0  9991
2 35123 098.9385 253.7094 0057670 117.8750 242.8283 14.17864724322181
1 35128U 99025DLG 20132.74601044  .00001062  00000-0  60941-3 0  9990
2 35128  98.3532 106.9927 0136654 128.7243 232.6237 14.06622947618413
1 35130U 99025DLJ 20140.47761634  .00001226  00000-0  62636-3 0  9999
2 35130  99.0708 220.5059 0048684 260.6775  98.8892 14.16985186660165
1 35134U 99025DLN 20137.35339869 +.00000998 +00000-0 +28248-3 0  9993
2 35134 098.9106 348.7728 0065867 110.0232 250.8066 14.46685721600671
1 35135U 99025DLP 20140.33143841 +.00000098 +00000-0 +66333-4 0  9998
2 35135 098.7197 173.9628 0087414 033.1364 023.4987 14.18002114589760
1 35136U 99025DLQ 20137.44362820 +.00000873 +00000-0 +33004-3 0  9996
2 35136 098.7179 207.9705 0077072 209.8460 149.8317 14.32175521591013
1 35137U 99025DLR 20140.53529142 +.00001595 +00000-0 +55640-3 0  9995
2 35137 099.0828 258.5052 0234847 301.7178 114.9922 14.22617578398707
1 35139U 99025DLT 20140.26486403 +.00000087 +00000-0 +62665-4 0  9990
2 35139 098.7161 171.8732 0072367 037.8422 322.7809 14.17561663353209
1 35140U 99025DLU 20140.31679608 +.00000004 +00000-0 +15398-4 0  9999
2 35140 098.5160 187.2191 0300617 117.5499 309.8320 14.18860039584288
1 35141U 99025DLV 20133.98904028  .00000527  00000-0  33237-3 0  9993
2 35141  99.0806 199.2328 0077911  17.5909 105.1469 14.07176353616868
1 35142U 99025DLW 20140.53626501 +.00000028 +00000-0 +56170-4 0  9998
2 35142 099.0699 165.5265 0108999 332.3778 190.4673 13.89245622574499
1 35144U 99025DLY 20137.94863352 +.00000775 +00000-0 +32156-3 0  9994
2 35144 098.7727 198.7779 0043176 268.4157 091.2078 14.28941991359733
1 35145U 99025DLZ 20135.06920702  .00002554  00000-0  14918-3 0  9992
2 35145  99.6113  92.6473 0106058   8.3236 351.9714 15.08654987667622
1 35146U 99025DMA 20140.55419717 +.00000550 +00000-0 +10721-3 0  9994
2 35146 098.2140 254.6433 0251791 335.8171 023.1366 14.49103399351738
1 35147U 99025DMB 20140.19179431 +.00000477 +00000-0 +17144-3 0  9995
2 35147 099.5183 294.6070 0052640 058.8475 301.7856 14.38301117448778
1 35148U 99025DMC 20140.18249663  .00000551  00000-0  13030-3 0  9993
2 35148  98.9450 101.2411 0088671 200.9196 158.8363 14.56311491668093
1 35152U 99025DMG 20140.55814632 +.00000448 +00000-0 +46679-3 0  9993
2 35152 099.6499 255.4398 0199889 230.9907 127.3294 13.72699483342665
1 35153U 99025DMH 20139.88661875 +.00000195 +00000-0 +40629-4 0  9996
2 35153 098.9289 191.0348 0203701 230.9527 127.3390 14.61077887674361
1 35154U 99025DMJ 20140.15935768 +.00000055 +00000-0 +46425-4 0  9999
2 35154 099.4675 109.3053 0187919 335.1052 024.1142 14.14843161357951
1 35155U 99025DMK 20140.39506312 +.00000188 +00000-0 +12084-3 0  9995
2 35155 098.7020 197.4415 0028695 148.1437 212.1479 14.14179177439404
1 35156U 99025DML 20140.52074793 +.00000091 +00000-0 +78244-4 0  9998
2 35156 098.7439 166.7155 0038855 138.5561 221.8566 14.07926106354155
1 35159U 99025DMP 20140.49442191  .00000767  00000-0  35581-3 0  9994
2 35159  98.9439 143.2471 0011202 337.6693 179.0418 14.23739321627046
1 35160U 99025DMQ 20138.70167336 +.00000071 +00000-0 +39423-4 0  9990
2 35160 099.2001 101.1209 0189068 019.4601 341.3673 14.30961351357954
1 35161U 99025DMR 20140.38591944 +.00001145 +00000-0 +16239-3 0  9996
2 35161 099.5366 211.6813 0108517 127.4879 233.6252 14.75688472423923
1 35162U 99025DMS 20127.35101786 +.00002442 +00000-0 +59828-3 0  9992
2 35162 096.7399 173.6344 0106997 195.9557 163.8263 14.49664526656691
1 35163U 99025DMT 20138.91874332 +.00000537 +00000-0 +12980-3 0  9992
2 35163 099.0896 208.2197 0118915 215.3532 143.9736 14.53794530389538
1 35164U 99025DMU 20140.07736071  .00000526  00000-0  45274-3 0  9990
2 35164  98.6201  88.4468 0216119 351.0898   8.6448 13.80533232647613
1 35165U 99025DMV 20140.54369648 +.00000569 +00000-0 +30971-3 0  9990
2 35165 098.9893 182.6955 0031927 135.1965 225.1794 14.16025943608375
1 35167U 99025DMX 20139.33222567 +.00000057 +00000-0 +33233-4 0  9992
2 35167 098.5217 175.7292 0254307 049.8962 312.4208 14.23006042410353
1 35168U 99025DMY 20140.27659703 +.00000156 +00000-0 +97458-4 0  9993
2 35168 098.1826 162.9717 0129264 242.5021 116.2966 14.12527287291969
1 35169U 99025DMZ 20140.36579937 +.00000045 +00000-0 +24139-4 0  9997
2 35169 099.1576 185.0165 0185960 059.1501 302.7836 14.45398809363203
1 35170U 99025DNA 20139.93902823  .00000469  00000-0  31311-3 0  9993
2 35170  99.8493 197.4895 0108455  93.6481 267.7092 14.03806218619728
1 35171U 99025DNB 20139.77219857 +.00000371 +00000-0 +33268-3 0  9999
2 35171 098.9506 345.4371 0156903 077.5593 284.3070 13.84682078603407
1 35173U 99025DND 20140.14824843 -.00000073 +00000-0 -35840-4 0  9991
2 35173 099.7732 270.0593 0522099 070.5547 295.1216 13.28936047387602
1 35174U 99025DNE 20140.27198152  .00001429  00000-0  26191-3 0  9995
2 35174  99.0439 304.4499 0364035 174.1740 186.3858 14.32637277606984
1 35175U 99025DNF 20135.31414717  .00000036  00000-0  37756-4 0  9996
2 35175  98.7255 167.9394 0060859  38.8461 321.7065 14.18202595659973
1 35176U 99025DNG 20140.57551502 +.00000088 +00000-0 +67304-4 0  9994
2 35176 098.6323 183.5617 0057434 130.9586 229.6577 14.13957180621760
1 35177U 99025DNH 20140.02600873  .00000388  00000-0  21672-3 0  9991
2 35177  98.7824 214.0276 0043774 157.4360 325.9657 14.16077440652875
1 35180U 99025DNL 20140.30624661 +.00000348 +00000-0 +21250-3 0  9995
2 35180 099.5338 321.1357 0623667 093.0474 274.2161 13.42452202273588
1 35183U 99025DNP 20137.16274592 +.00000692 +00000-0 +13717-3 0  9993
2 35183 098.8812 102.1359 0103336 045.4275 315.5301 14.62595000364050
1 35185U 99025DNR 20139.45164141  .00000931  00000-0  12255-3 0  9999
2 35185  99.5330 223.0833 0119023  73.0300 288.3911 14.78654634656011
1 35186U 99025DNS 20137.21160450 +.00000595 +00000-0 +24657-3 0  9996
2 35186 099.6132 290.8197 0062696 192.0789 167.8890 14.29854041357301
1 35189U 99025DNV 20139.97907938  .00000528  00000-0  35524-3 0  9995
2 35189  99.0070 186.6548 0066740  59.0626 301.7077 14.03914537653165
1 35190U 99025DNW 20126.32077258 +.00000943 +00000-0 +27716-3 0  9990
2 35190 098.7386 154.4187 0111263 019.7974 340.7482 14.42679447289906
1 35191U 99025DNX 20139.92136637  .00000029  00000-0  56105-4 0  9998
2 35191  98.9876 166.3903 0103714 346.6433  13.1985 13.90018179598100
1 35192U 99025DNY 20140.57682419 +.00001280 +00000-0 +27670-3 0  9990
2 35192 099.1319 076.1322 0229022 065.3285 297.1566 14.45260502360915
1 35194U 99025DPA 20135.02914258  .00000331  00000-0  98569-4 0  9997
2 35194  98.9325  59.5906 0148372  64.4892 297.1557 14.43976931616705
1 35195U 99025DPB 20140.04136719  .00000262  00000-0  87046-4 0  9995
2 35195  98.9856  74.5144 0129347   9.0057 351.3408 14.42172267616814
1 35196U 99025DPC 20140.39371706 +.00000016 +00000-0 +25391-4 0  9993
2 35196 098.7378 194.3393 0234989 043.9658 012.1385 14.12131669603878
1 35199U 99025DPF 20140.07507887  .00000371  00000-0  30984-3 0  9999
2 35199  98.4570  82.4541 0127461  93.9798 267.5944 13.90063204638790
1 35200U 99025DPG 20139.81071856 +.00000049 +00000-0 +10413-3 0  9991
2 35200 098.8555 332.0945 0356587 133.7402 299.6686 13.40669467386405
1 35201U 99025DPH 20140.36808441 +.00000065 +00000-0 +61436-4 0  9992
2 35201 098.8685 170.7726 0005845 241.6605 131.6715 14.10194489583554
1 35202U 99025DPJ 20140.53743608 +.00000134 +00000-0 +24661-3 0  9990
2 35202 100.2745 170.5069 0382786 158.2856 203.4996 13.31843633298906
1 35203U 99025DPK 20140.25490594  .00000784  00000-0  10358-2 0  9991
2 35203 102.0808 131.2557 0545992 223.7388 131.9221 13.15962173608905
1 35204U 99025DPL 20140.25044623  .00000562  00000-0  27360-3 0  9996
2 35204  98.9066 244.9081 0060901 111.0097 279.3139 14.21248166620015
1 35205U 99025DPM 20138.42564288 +.00001229 +00000-0 +62988-3 0  9993
2 35205 098.9982 123.9249 0068085 169.6460 190.6134 14.16168720314504
1 35207U 99025DPP 20140.52869041 +.00000637 +00000-0 +24753-3 0  9994
2 35207 098.8372 172.5799 0080588 163.2077 197.1802 14.31586029356798
1 35208U 99025DPQ 20140.32608242 +.00000395 +00000-0 +32152-3 0  9990
2 35208 099.0844 182.6194 0105931 336.4740 023.1595 13.93177100622042
1 35210U 99025DPS 20139.35299997 +.00000778 +00000-0 +46359-3 0  9996
2 35210 098.9988 081.3900 0067883 249.5717 263.1566 14.09244137614759
1 35211U 99025DPT 20140.44924480 +.00000269 +00000-0 +20378-3 0  9999
2 35211 098.3976 120.0976 0141532 221.4129 292.0268 13.96753578609736
1 35213U 99025DPV 20140.33796421  .00001148  00000-0  12035-3 0  9999
2 35213  98.5114 352.0545 0165336  51.0737 310.5082 14.82301501625181
